[{"OBJECT_NAME":"ONEWEB-0403","OBJECT_ID":"2021-132Q","EPOCH":"2026-03-09T17:15:59.224608","MEAN_MOTION":13.18687095,"ECCENTRICITY":0.00017767,"INCLINATION":87.9251,"RA_OF_ASC_NODE":355.2075,"ARG_OF_PERICENTER":75.8579,"MEAN_ANOMALY":284.2751,"EPHEMERIS_TYPE":0,"CLASSIFICATION_TYPE":"U","NORAD_CAT_ID":50483,"ELEMENT_SET_NO":999,"REV_AT_EPOCH":20848,"BSTAR":0.00012705755,"MEAN_MOTION_DOT":6.3e-7,"MEAN_MOTION_DDOT":0},{"OBJECT_NAME":"METEOR 3-6","OBJECT_ID":"1994-003A","EPOCH":"2026-03-09T19:16:37.191936","MEAN_MOTION":13.17059795,"ECCENTRICITY":0.00162952,"INCLINATION":82.5663,"RA_OF_ASC_NODE":157.4504,"ARG_OF_PERICENTER":96.7518,"MEAN_ANOMALY":263.5459,"EPHEMERIS_TYPE":0,"CLASSIFICATION_TYPE":"U","NORAD_CAT_ID":22969,"ELEMENT_SET_NO":999,"REV_AT_EPOCH":54415,"BSTAR":-0.0003016254,"MEAN_MOTION_DOT":-1.04e-6,"MEAN_MOTION_DDOT":0}]
